[Satellite]
VERSION=1.1
NAME=COSMOS 2219
NICKNAME=COSMOS 2219
TLE1=1 22219U 92076A   22342.30516432  .00000030  00000+0  40479-4 0  9997
TLE2=2 22219  71.0614 339.4966 0019586 220.8735 139.0920 14.13722517550549
STATUS=0
